[{"OBJECT_NAME":"STARLINK-30969","OBJECT_ID":"2023-183B","EPOCH":"2026-03-09T22:21:48.778848","MEAN_MOTION":15.26734723,"ECCENTRICITY":0.00012691,"INCLINATION":43.0009,"RA_OF_ASC_NODE":40.0601,"ARG_OF_PERICENTER":283.0632,"MEAN_ANOMALY":77.0078,"EPHEMERIS_TYPE":0,"CLASSIFICATION_TYPE":"U","NORAD_CAT_ID":58438,"ELEMENT_SET_NO":999,"REV_AT_EPOCH":12677,"BSTAR":1.4008901e-5,"MEAN_MOTION_DOT":1.16e-6,"MEAN_MOTION_DDOT":0},{"OBJECT_NAME":"HERMES-4","OBJECT_ID":"2025-052BP","EPOCH":"2026-03-09T22:05:58.629408","MEAN_MOTION":15.26796135,"ECCENTRICITY":0.00026523,"INCLINATION":97.4,"RA_OF_ASC_NODE":323.461,"ARG_OF_PERICENTER":154.9526,"MEAN_ANOMALY":205.1842,"EPHEMERIS_TYPE":0,"CLASSIFICATION_TYPE":"U","NORAD_CAT_ID":63833,"ELEMENT_SET_NO":999,"REV_AT_EPOCH":5478,"BSTAR":0.00081237216,"MEAN_MOTION_DOT":0.00021364,"MEAN_MOTION_DDOT":0}]
